COSMOS 1892             
1 18421U 87088A   21195.64067959  .00000353  00000-0  15804-4 0  9994
2 18421  82.4992 245.2402 0015986 139.1834 221.0600 15.17706046844025
SL-14 R/B               
1 18749U 88001B   21195.92137044  .00000076  00000-0  63368-5 0  9998
2 18749  82.5149 349.8318 0020299  85.4127  29.2621 14.83266071790045
COSMOS 1933             
1 18958U 88020A   21195.83982815  .00000478  00000-0  32565-4 0  9995
2 18958  82.5304 106.6357 0009974 255.0155 104.9967 15.03956345794057
SL-3 R/B                
1 19046U 88032B   21196.10190852  .00000622  00000-0  50082-4 0  9995
2 19046  97.3876 205.3651 0035934 309.8405  49.9660 15.02968103796222
SL-16 R/B               
1 19120U 88039B   21195.91540856 -.00000121  00000-0 -34730-4 0  9994
2 19120  71.0153  59.2282 0019984  62.7141 297.6016 14.19222388717334
COSMOS 1953             
1 19210U 88050A   21195.75938343  .00000524  00000-0  33621-4 0  9994
2 19210  82.5167  28.9382 0012517 215.0381 145.0024 15.06315285780717
SL-8 R/B                
1 19257U 88053B   21195.95664282 -.00000030  00000-0 -13376-5 0  9998
2 19257  74.0475 359.2458 0021200 242.4071 234.9249 14.37525585732408
COSMOS 1975             
1 19573U 88093A   21195.88724805  .00000893  00000-0  60565-4 0  9999
2 19573  82.5204 343.9764 0012600 265.2724  94.7064 15.05208379783672
SL-14 R/B               
1 19574U 88093B   21195.95543630  .00000060  00000-0  44264-5 0  9998
2 19574  82.5311 193.0066 0020114 246.0888 175.7014 14.83376668749059
SL-16 R/B               
1 19650U 88102B   21195.88952723 -.00000090  00000-0 -21274-4 0  9993
2 19650  71.0006 124.6930 0012099  74.1823 286.0633 14.15808997686424
INTERCOSMOS 24          
1 20261U 89080A   21195.84134663  .00000004  00000-0  36896-6 0  9991
2 20261  82.6077 126.3567 1201172 262.3551  83.9828 12.56218266453268
SL-14 R/B               
1 20262U 89080C   21195.94809519  .00000055  00000-0  65195-5 0  9991
2 20262  82.5925 182.5120 1237871 102.1824 272.0384 12.48972505447982
DELTA 2 R/B(1)          
1 20303U 89085B   21195.88624846  .00003169  00000-0  98221-4 0  9997
2 20303  35.6401  61.8172 0089343  69.8353 291.1959 15.29378362728677
DELTA 1 R/B             
1 20323U 89089B   21195.82716657  .00000033  00000-0  17368-4 0  9999
2 20323  97.1223 285.8869 0073197  77.1842 283.7521 14.48408885649667
ARIANE 40 R/B           
1 20443U 90005H   21195.78110982  .00000013  00000-0  18825-4 0  9993
2 20443  98.5272 261.8419 0009282 251.1802 108.8379 14.38133963648509
DELTA 2 R/B(1)          
1 20453U 90008B   21195.86068932  .00001161  00000-0  66296-4 0  9993
2 20453  35.6253 100.6168 0277044 342.9655  16.1909 14.86605028669603
COSMOS 2058             
1 20465U 90010A   21195.65360774  .00000240  00000-0  17890-4 0  9998
2 20465  82.4886 255.8821 0014280 323.7965  36.2290 14.98236190687046
SL-14 R/B               
1 20466U 90010B   21195.71092274  .00000057  00000-0  42369-5 0  9999
2 20466  82.5023  59.6748 0021733 126.3728 233.9495 14.81429665676802
SL-14 R/B               
1 20511U 90018B   21195.92600538  .00000061  00000-0  50309-5 0  9997
2 20511  82.5231   7.6035 0015919 270.8880 201.3396 14.80084124671168
HST                     
1 20580U 90037B   21195.56565297  .00000402  00000-0  13323-4 0  9999
2 20580  28.4692 245.6839 0002695   0.9217 150.0822 15.09681029515118
SL-16 R/B               
1 20625U 90046B   21195.65927770  .00000294  00000-0  17756-3 0  9999
2 20625  70.9987 264.9638 0014180 358.1081   1.9985 14.14669419608084
COSMOS 2084             
1 20663U 90055A   21195.62245016 -.00000068  00000-0  11991-4 0  9990
2 20663  62.7950 298.5934 0074249  10.7883 349.4782 14.92268727681876
SL-6 R/B(2)             
1 20666U 90055D   21196.21280211 -.00000032  00000-0  15402-4 0  9997
2 20666  62.7831 212.0555 0101759  37.9624 322.8585 14.92516133683389
SL-8 R/B                
1 20775U 90078B   21195.71141546  .00001414  00000-0  65321-4 0  9993
2 20775  82.9260 262.7728 0567753  58.2533 307.2694 14.36057618562008
SL-8 R/B                
1 21088U 91006B   21195.94788387  .00000090  00000-0  74696-4 0  9992
2 21088  82.9431 353.4024 0023890 111.2381 359.8482 13.77172574530234
OKEAN-3                 
1 21397U 91039A   21195.91793258  .00000208  00000-0  17437-4 0  9992
2 21397  82.5219 163.5955 0016296 299.0243  60.9344 14.93122786631883
COSMOS 2151             
1 21422U 91042A   21195.67467223  .00000117  00000-0  89690-5 0  9998
2 21422  82.5006 269.4830 0014237   9.2377 350.9102 14.92272600609324
SL-14 R/B               
1 21423U 91042B   21195.91633880  .00000064  00000-0  53848-5 0  9997
2 21423  82.4938  10.0909 0018860  56.4054 303.8956 14.79833693601705
ERS-1                   
1 21574U 91050A   21195.91527079  .00000020  00000-0  21343-4 0  9991
2 21574  98.6490 156.5937 0032468 198.5516 161.4489 14.37804773571517
ARIANE 40 R/B           
1 21610U 91050F   21195.82181288  .00000007  00000-0  15843-4 0  9993
2 21610  98.4222 266.1582 0003912 144.7996 327.2085 14.40955531574486
INTERCOSMOS 25          
1 21819U 91086A   21195.66683973  .00000130  00000-0  20132-4 0  9997
2 21819  82.5804 251.2421 1516712 156.0897 211.8915 12.05259428291531
SL-8 R/B                
1 21876U 92008B   21195.84568082  .00000051  00000-0  36800-4 0  9999
2 21876  82.9269  90.7790 0034244 196.3448 232.0820 13.75681732475822
SL-8 R/B                
1 21938U 92020B   21195.90308781  .00000080  00000-0  67222-4 0  9991
2 21938  82.9316 335.1978 0029157   1.4102 110.0452 13.75290368467613
COSMOS 2219             
1 22219U 92076A   21195.79320986 -.00000320  00000-0 -14421-3 0  9994
2 22219  71.0611 328.1098 0020763 275.1018  84.7734 14.13662215478257
SL-16 R/B               
1 22220U 92076B   21195.93371809 -.00000233  00000-0 -92838-4 0  9994
2 22220  70.9995 165.3818 0012395 174.8161 249.4249 14.16472861481253
COSMOS 2221             
1 22236U 92080A   21195.73905674  .00000172  00000-0  15882-4 0  9991
2 22236  82.5080  92.9540 0018161  98.3727 261.9550 14.88072220527604
SL-16 R/B               
1 22285U 92093B   21195.77109370  .00000218  00000-0  13721-3 0  9992
2 22285  71.0223 329.4592 0004029 350.6816   9.4231 14.15060425472802
COSMOS 2228             
1 22286U 92094A   21195.70052956  .00000159  00000-0  14432-4 0  9999
2 22286  82.5191  49.6933 0020128 214.8218 145.1684 14.88296491522786
SL-16 R/B               
1 22566U 93016B   21195.39625242 -.00000284  00000-0 -12220-3 0  9997
2 22566  71.0051 183.0199 0009490  16.7616 343.3818 14.14974348461777
COSMOS 2242             
1 22626U 93024A   21195.85162699  .00000164  00000-0  15033-4 0  9997
2 22626  82.5214  77.8440 0017900 214.1505 145.8563 14.88147241527193
SL-16 R/B               
1 22803U 93059B   21195.73290600 -.00000127  00000-0 -39386-4 0  9991
2 22803  70.9912 352.5608 0019498 277.6821  82.2088 14.16840238438862
ARIANE 40 R/B           
1 22830U 93061H   21196.13126722 -.00000011  00000-0  12814-4 0  9990
2 22830  98.7116 253.7742 0009855 247.8943 112.1193 14.31485601451251
COSMOS 2278             
1 23087U 94023A   21196.20312281  .00000329  00000-0  19846-3 0  9991
2 23087  71.0538 126.7260 0007245 106.1195 254.0725 14.13828419404959
SL-16 R/B               
1 23088U 94023B   21195.90254669 -.00000149  00000-0 -52395-4 0  9992
2 23088  70.9978  37.3937 0003950 325.4305  34.6560 14.14688270405817
SL-16 R/B               
1 23343U 94074B   21195.73968927  .00000009  00000-0  84962-5 0  9991
2 23343  97.9442 249.9548 0006202 337.8358 133.8951 14.76889226436310
SL-16 R/B               
1 23405U 94077B   21195.76482918  .00000118  00000-0  85531-4 0  9990
2 23405  70.9836 325.5670 0004357 243.8631 116.2043 14.15238436375844
ERS-2                   
1 23560U 95021A   21196.04070011  .00000730  00000-0  33859-4 0  9997
2 23560  98.5458  50.0106 0002140 279.2915  80.8076 15.24037419401922
ARIANE 40+ R/B          
1 23561U 95021B   21195.88766834  .00000012  00000-0  19092-4 0  9990
2 23561  98.6724 245.9542 0007341 160.7951 251.3398 14.38035141375196
SL-16 R/B               
1 23705U 95058B   21195.32571451  .00000160  00000-0  10674-3 0  9998
2 23705  71.0206 146.7467 0013043 199.0013 161.0625 14.15150619327415
SL-16 R/B               
1 24298U 96051B   21195.35313260 -.00000150  00000-0 -54850-4 0  9991
2 24298  70.8273 164.2064 0014376 139.0682 221.1520 14.12435009281695
ORBVIEW 2 (SEASTAR)     
1 24883U 97037A   21195.78813024  .00000036  00000-0  28962-4 0  9992
2 24883  98.6457 313.8346 0003000  49.1072 311.0372 14.33623049264925
SL-16 R/B               
1 25400U 98043G   21195.80809265 -.00000011  00000-0  13687-4 0  9993
2 25400  98.6406 131.2528 0008779 272.7700  87.2475 14.25478947196914
SL-16 R/B               
1 25407U 98045B   21195.31188323 -.00000289  00000-0 -12287-3 0  9995
2 25407  71.0108 154.0466 0005164  98.4424 261.7284 14.15839753186540
ISS (ZARYA)             
1 25544U 98067A   21196.23349539  .00001236  00000-0  30778-4 0  9998
2 25544  51.6416 204.0296 0002003 158.2120 291.8009 15.48799585292948
CZ-4B R/B               
1 25732U 99025C   21195.74915703 -.00000030  00000-0  74218-5 0  9999
2 25732  98.9000 232.2650 0037538 170.2945 301.1644 14.17695964147408
OKEAN-O                 
1 25860U 99039A   21195.70183513  .00000028  00000-0  11573-4 0  9998
2 25860  98.1807 226.8210 0001836  80.6898 279.4519 14.76745745183407
SL-16 R/B               
1 25861U 99039B   21195.63515434 -.00000002  00000-0  72919-5 0  9997
2 25861  98.2030 211.5307 0015197 343.2814 128.1198 14.78650155185571
DELTA 2 R/B             
1 25876U 99041E   21195.45038417 -.00000081  00000-0  28258-4 0  9990
2 25876  51.7615 202.6928 0531543  47.5072 316.9522 14.04583600123713
HELIOS 1B               
1 25977U 99064A   21195.49276237  .00000005  00000-0  77834-5 0  9995
2 25977  98.3182  11.0763 0002114 124.6505 235.4907 14.82567175433200
